[{"OBJECT_NAME":"STARLINK-5698","OBJECT_ID":"2023-020BG","EPOCH":"2026-03-08T19:52:51.679488","MEAN_MOTION":15.02530382,"ECCENTRICITY":0.00016502,"INCLINATION":43.0061,"RA_OF_ASC_NODE":356.0095,"ARG_OF_PERICENTER":265.2734,"MEAN_ANOMALY":94.792,"EPHEMERIS_TYPE":0,"CLASSIFICATION_TYPE":"U","NORAD_CAT_ID":55623,"ELEMENT_SET_NO":999,"REV_AT_EPOCH":16894,"BSTAR":2.7835577e-5,"MEAN_MOTION_DOT":1.72e-6,"MEAN_MOTION_DDOT":0},{"OBJECT_NAME":"ION SCV-014","OBJECT_ID":"2025-009X","EPOCH":"2026-03-09T17:13:35.291712","MEAN_MOTION":15.0488465,"ECCENTRICITY":0.00064503,"INCLINATION":97.4923,"RA_OF_ASC_NODE":144.8636,"ARG_OF_PERICENTER":112.6479,"MEAN_ANOMALY":247.543,"EPHEMERIS_TYPE":0,"CLASSIFICATION_TYPE":"U","NORAD_CAT_ID":62630,"ELEMENT_SET_NO":999,"REV_AT_EPOCH":6302,"BSTAR":0.0001322874,"MEAN_MOTION_DOT":1.812e-5,"MEAN_MOTION_DDOT":0}]
