STARLINK-5698           
1 55623U 23020BG  26067.82837592  .00000172  00000+0  27836-4 0  9992
2 55623  43.0061 356.0095 0001650 265.2734  94.7920 15.02530382168944
ION SCV-014             
1 62630U 25009X   26068.71776957  .00001812  00000+0  13229-3 0  9995
2 62630  97.4923 144.8636 0006450 112.6479 247.5430 15.04884649 63025
